[{"OBJECT_NAME":"STARLINK-37021","OBJECT_ID":"2026-044E","EPOCH":"2026-03-19T16:00:01.999584","MEAN_MOTION":15.82055772,"ECCENTRICITY":0.00016,"INCLINATION":97.284,"RA_OF_ASC_NODE":39.2909,"ARG_OF_PERICENTER":106.0694,"MEAN_ANOMALY":124.6421,"EPHEMERIS_TYPE":0,"CLASSIFICATION_TYPE":"U","NORAD_CAT_ID":68105,"ELEMENT_SET_NO":999,"REV_AT_EPOCH":295,"BSTAR":-0.0090889,"MEAN_MOTION_DOT":-0.01612666,"MEAN_MOTION_DDOT":0},{"OBJECT_NAME":"STARLINK-37024","OBJECT_ID":"2026-044F","EPOCH":"2026-03-19T16:00:01.999584","MEAN_MOTION":15.82178521,"ECCENTRICITY":0.0001972,"INCLINATION":97.2839,"RA_OF_ASC_NODE":39.2923,"ARG_OF_PERICENTER":95.0362,"MEAN_ANOMALY":139.8088,"EPHEMERIS_TYPE":0,"CLASSIFICATION_TYPE":"U","NORAD_CAT_ID":68106,"ELEMENT_SET_NO":999,"REV_AT_EPOCH":295,"BSTAR":-0.0091335,"MEAN_MOTION_DOT":-0.01628042,"MEAN_MOTION_DDOT":0},{"OBJECT_NAME":"STARLINK-37005","OBJECT_ID":"2026-044G","EPOCH":"2026-03-19T16:00:01.999584","MEAN_MOTION":15.81620041,"ECCENTRICITY":0.0001675,"INCLINATION":97.2843,"RA_OF_ASC_NODE":39.2866,"ARG_OF_PERICENTER":79.2742,"MEAN_ANOMALY":143.1867,"EPHEMERIS_TYPE":0,"CLASSIFICATION_TYPE":"U","NORAD_CAT_ID":68107,"ELEMENT_SET_NO":999,"REV_AT_EPOCH":295,"BSTAR":-0.0061421,"MEAN_MOTION_DOT":-0.01079281,"MEAN_MOTION_DDOT":0},{"OBJECT_NAME":"STARLINK-37017","OBJECT_ID":"2026-044H","EPOCH":"2026-03-19T16:00:01.999584","MEAN_MOTION":15.82317919,"ECCENTRICITY":0.0001834,"INCLINATION":97.2842,"RA_OF_ASC_NODE":39.295,"ARG_OF_PERICENTER":87.7812,"MEAN_ANOMALY":151.233,"EPHEMERIS_TYPE":0,"CLASSIFICATION_TYPE":"U","NORAD_CAT_ID":68108,"ELEMENT_SET_NO":999,"REV_AT_EPOCH":295,"BSTAR":-0.010077,"MEAN_MOTION_DOT":-0.01820934,"MEAN_MOTION_DDOT":0},{"OBJECT_NAME":"STARLINK-36833","OBJECT_ID":"2026-044J","EPOCH":"2026-03-19T16:00:01.999584","MEAN_MOTION":15.82568331,"ECCENTRICITY":0.000208,"INCLINATION":97.283,"RA_OF_ASC_NODE":39.2968,"ARG_OF_PERICENTER":100.7258,"MEAN_ANOMALY":146.5397,"EPHEMERIS_TYPE":0,"CLASSIFICATION_TYPE":"U","NORAD_CAT_ID":68109,"ELEMENT_SET_NO":999,"REV_AT_EPOCH":300,"BSTAR":-0.0105,"MEAN_MOTION_DOT":-0.01907498,"MEAN_MOTION_DDOT":0},{"OBJECT_NAME":"STARLINK-36830","OBJECT_ID":"2026-044K","EPOCH":"2026-03-19T16:00:01.999584","MEAN_MOTION":15.82375849,"ECCENTRICITY":0.0001847,"INCLINATION":97.2835,"RA_OF_ASC_NODE":39.2954,"ARG_OF_PERICENTER":105.5976,"MEAN_ANOMALY":137.6031,"EPHEMERIS_TYPE":0,"CLASSIFICATION_TYPE":"U","NORAD_CAT_ID":68110,"ELEMENT_SET_NO":999,"REV_AT_EPOCH":300,"BSTAR":-0.0098972,"MEAN_MOTION_DOT":-0.01758994,"MEAN_MOTION_DDOT":0},{"OBJECT_NAME":"STARLINK-36791","OBJECT_ID":"2026-044L","EPOCH":"2026-03-19T16:00:01.999584","MEAN_MOTION":15.82685306,"ECCENTRICITY":0.0001833,"INCLINATION":97.2834,"RA_OF_ASC_NODE":39.2993,"ARG_OF_PERICENTER":101.5673,"MEAN_ANOMALY":149.8375,"EPHEMERIS_TYPE":0,"CLASSIFICATION_TYPE":"U","NORAD_CAT_ID":68111,"ELEMENT_SET_NO":999,"REV_AT_EPOCH":295,"BSTAR":-0.010878,"MEAN_MOTION_DOT":-0.01976323,"MEAN_MOTION_DDOT":0},{"OBJECT_NAME":"STARLINK-36893","OBJECT_ID":"2026-044M","EPOCH":"2026-03-19T16:00:01.999584","MEAN_MOTION":15.82811768,"ECCENTRICITY":0.000163,"INCLINATION":97.2832,"RA_OF_ASC_NODE":39.3008,"ARG_OF_PERICENTER":96.3608,"MEAN_ANOMALY":159.1196,"EPHEMERIS_TYPE":0,"CLASSIFICATION_TYPE":"U","NORAD_CAT_ID":68112,"ELEMENT_SET_NO":999,"REV_AT_EPOCH":300,"BSTAR":-0.010764,"MEAN_MOTION_DOT":-0.01968218,"MEAN_MOTION_DDOT":0},{"OBJECT_NAME":"STARLINK-36937","OBJECT_ID":"2026-044N","EPOCH":"2026-03-19T16:00:01.999584","MEAN_MOTION":15.83042926,"ECCENTRICITY":0.0001735,"INCLINATION":97.2829,"RA_OF_ASC_NODE":39.3041,"ARG_OF_PERICENTER":101.7293,"MEAN_ANOMALY":161.9323,"EPHEMERIS_TYPE":0,"CLASSIFICATION_TYPE":"U","NORAD_CAT_ID":68113,"ELEMENT_SET_NO":999,"REV_AT_EPOCH":295,"BSTAR":-0.010947,"MEAN_MOTION_DOT":-0.02016233,"MEAN_MOTION_DDOT":0},{"OBJECT_NAME":"STARLINK-36229","OBJECT_ID":"2026-044P","EPOCH":"2026-03-19T16:00:01.999584","MEAN_MOTION":15.82918607,"ECCENTRICITY":0.000184,"INCLINATION":97.2822,"RA_OF_ASC_NODE":39.3017,"ARG_OF_PERICENTER":106.7446,"MEAN_ANOMALY":152.855,"EPHEMERIS_TYPE":0,"CLASSIFICATION_TYPE":"U","NORAD_CAT_ID":68114,"ELEMENT_SET_NO":999,"REV_AT_EPOCH":300,"BSTAR":-0.010818,"MEAN_MOTION_DOT":-0.01985704,"MEAN_MOTION_DDOT":0},{"OBJECT_NAME":"STARLINK-36392","OBJECT_ID":"2026-044Q","EPOCH":"2026-03-19T16:00:01.999584","MEAN_MOTION":15.83097111,"ECCENTRICITY":0.0001856,"INCLINATION":97.2825,"RA_OF_ASC_NODE":39.3058,"ARG_OF_PERICENTER":103.4122,"MEAN_ANOMALY":164.4292,"EPHEMERIS_TYPE":0,"CLASSIFICATION_TYPE":"U","NORAD_CAT_ID":68115,"ELEMENT_SET_NO":999,"REV_AT_EPOCH":300,"BSTAR":-0.010899,"MEAN_MOTION_DOT":-0.02013246,"MEAN_MOTION_DDOT":0},{"OBJECT_NAME":"STARLINK-36805","OBJECT_ID":"2026-044R","EPOCH":"2026-03-19T16:00:01.999584","MEAN_MOTION":15.83096658,"ECCENTRICITY":0.0001653,"INCLINATION":97.2823,"RA_OF_ASC_NODE":39.3073,"ARG_OF_PERICENTER":105.2418,"MEAN_ANOMALY":166.8781,"EPHEMERIS_TYPE":0,"CLASSIFICATION_TYPE":"U","NORAD_CAT_ID":68116,"ELEMENT_SET_NO":999,"REV_AT_EPOCH":300,"BSTAR":-0.010928,"MEAN_MOTION_DOT":-0.02017624,"MEAN_MOTION_DDOT":0},{"OBJECT_NAME":"STARLINK-36844","OBJECT_ID":"2026-044S","EPOCH":"2026-03-19T16:00:01.999584","MEAN_MOTION":15.83214207,"ECCENTRICITY":0.0001794,"INCLINATION":97.2818,"RA_OF_ASC_NODE":39.3087,"ARG_OF_PERICENTER":103.5452,"MEAN_ANOMALY":172.6358,"EPHEMERIS_TYPE":0,"CLASSIFICATION_TYPE":"U","NORAD_CAT_ID":68117,"ELEMENT_SET_NO":999,"REV_AT_EPOCH":295,"BSTAR":-0.0109,"MEAN_MOTION_DOT":-0.02022958,"MEAN_MOTION_DDOT":0},{"OBJECT_NAME":"STARLINK-36789","OBJECT_ID":"2026-044T","EPOCH":"2026-03-19T16:00:01.999584","MEAN_MOTION":15.83017665,"ECCENTRICITY":0.0001645,"INCLINATION":97.2816,"RA_OF_ASC_NODE":39.3111,"ARG_OF_PERICENTER":113.08,"MEAN_ANOMALY":167.7712,"EPHEMERIS_TYPE":0,"CLASSIFICATION_TYPE":"U","NORAD_CAT_ID":68118,"ELEMENT_SET_NO":999,"REV_AT_EPOCH":295,"BSTAR":-0.011072,"MEAN_MOTION_DOT":-0.02033791,"MEAN_MOTION_DDOT":0},{"OBJECT_NAME":"STARLINK-36850","OBJECT_ID":"2026-044U","EPOCH":"2026-03-19T16:00:01.999584","MEAN_MOTION":15.83119657,"ECCENTRICITY":0.0001877,"INCLINATION":97.2816,"RA_OF_ASC_NODE":39.3125,"ARG_OF_PERICENTER":111.077,"MEAN_ANOMALY":173.8668,"EPHEMERIS_TYPE":0,"CLASSIFICATION_TYPE":"U","NORAD_CAT_ID":68119,"ELEMENT_SET_NO":999,"REV_AT_EPOCH":295,"BSTAR":-0.011161,"MEAN_MOTION_DOT":-0.02056672,"MEAN_MOTION_DDOT":0},{"OBJECT_NAME":"STARLINK-36868","OBJECT_ID":"2026-044V","EPOCH":"2026-03-19T16:00:01.999584","MEAN_MOTION":15.83134144,"ECCENTRICITY":0.0001692,"INCLINATION":97.2811,"RA_OF_ASC_NODE":39.3144,"ARG_OF_PERICENTER":103.0194,"MEAN_ANOMALY":186.18,"EPHEMERIS_TYPE":0,"CLASSIFICATION_TYPE":"U","NORAD_CAT_ID":68120,"ELEMENT_SET_NO":999,"REV_AT_EPOCH":295,"BSTAR":-0.011194,"MEAN_MOTION_DOT":-0.02062972,"MEAN_MOTION_DDOT":0},{"OBJECT_NAME":"STARLINK-36855","OBJECT_ID":"2026-044W","EPOCH":"2026-03-19T16:00:01.999584","MEAN_MOTION":15.83194791,"ECCENTRICITY":0.0001805,"INCLINATION":97.2809,"RA_OF_ASC_NODE":39.3165,"ARG_OF_PERICENTER":105.1968,"MEAN_ANOMALY":188.1796,"EPHEMERIS_TYPE":0,"CLASSIFICATION_TYPE":"U","NORAD_CAT_ID":68121,"ELEMENT_SET_NO":999,"REV_AT_EPOCH":295,"BSTAR":-0.011234,"MEAN_MOTION_DOT":-0.02074465,"MEAN_MOTION_DDOT":0},{"OBJECT_NAME":"STARLINK-36366","OBJECT_ID":"2026-044X","EPOCH":"2026-03-19T16:00:01.999584","MEAN_MOTION":15.83307209,"ECCENTRICITY":0.0001535,"INCLINATION":97.2806,"RA_OF_ASC_NODE":39.3184,"ARG_OF_PERICENTER":94.8815,"MEAN_ANOMALY":202.5377,"EPHEMERIS_TYPE":0,"CLASSIFICATION_TYPE":"U","NORAD_CAT_ID":68122,"ELEMENT_SET_NO":999,"REV_AT_EPOCH":300,"BSTAR":-0.01101,"MEAN_MOTION_DOT":-0.02047975,"MEAN_MOTION_DDOT":0},{"OBJECT_NAME":"STARLINK-36922","OBJECT_ID":"2026-044Y","EPOCH":"2026-03-19T16:00:01.999584","MEAN_MOTION":15.83472042,"ECCENTRICITY":0.0001843,"INCLINATION":97.2803,"RA_OF_ASC_NODE":39.3223,"ARG_OF_PERICENTER":107.0353,"MEAN_ANOMALY":198.5638,"EPHEMERIS_TYPE":0,"CLASSIFICATION_TYPE":"U","NORAD_CAT_ID":68123,"ELEMENT_SET_NO":999,"REV_AT_EPOCH":300,"BSTAR":-0.010621,"MEAN_MOTION_DOT":-0.019993,"MEAN_MOTION_DDOT":0},{"OBJECT_NAME":"STARLINK-36938","OBJECT_ID":"2026-044Z","EPOCH":"2026-03-19T16:00:01.999584","MEAN_MOTION":15.83649275,"ECCENTRICITY":0.0001688,"INCLINATION":97.2798,"RA_OF_ASC_NODE":39.3227,"ARG_OF_PERICENTER":100.3629,"MEAN_ANOMALY":209.2327,"EPHEMERIS_TYPE":0,"CLASSIFICATION_TYPE":"U","NORAD_CAT_ID":68124,"ELEMENT_SET_NO":999,"REV_AT_EPOCH":300,"BSTAR":-0.011213,"MEAN_MOTION_DOT":-0.02109833,"MEAN_MOTION_DDOT":0},{"OBJECT_NAME":"STARLINK-36839","OBJECT_ID":"2026-044AA","EPOCH":"2026-03-19T16:00:01.999584","MEAN_MOTION":15.8334983,"ECCENTRICITY":0.0001594,"INCLINATION":97.2806,"RA_OF_ASC_NODE":39.3208,"ARG_OF_PERICENTER":102.614,"MEAN_ANOMALY":198.981,"EPHEMERIS_TYPE":0,"CLASSIFICATION_TYPE":"U","NORAD_CAT_ID":68125,"ELEMENT_SET_NO":999,"REV_AT_EPOCH":295,"BSTAR":-0.010856,"MEAN_MOTION_DOT":-0.02026998,"MEAN_MOTION_DDOT":0},{"OBJECT_NAME":"ECHOSTAR 25","OBJECT_ID":"2026-045A","EPOCH":"2026-03-19T02:28:15.623904","MEAN_MOTION":1.79782376,"ECCENTRICITY":0.4747686,"INCLINATION":9.9581,"RA_OF_ASC_NODE":67.2584,"ARG_OF_PERICENTER":180.7477,"MEAN_ANOMALY":178.3967,"EPHEMERIS_TYPE":0,"CLASSIFICATION_TYPE":"U","NORAD_CAT_ID":68126,"ELEMENT_SET_NO":999,"REV_AT_EPOCH":19,"BSTAR":0,"MEAN_MOTION_DOT":-4.7e-7,"MEAN_MOTION_DDOT":0},{"OBJECT_NAME":"ICOR SV","OBJECT_ID":"2026-046A","EPOCH":"2026-03-13T21:49:43.816224","MEAN_MOTION":15.82606913,"ECCENTRICITY":0.0140888,"INCLINATION":123.0797,"RA_OF_ASC_NODE":224.1306,"ARG_OF_PERICENTER":188.2572,"MEAN_ANOMALY":171.617,"EPHEMERIS_TYPE":0,"CLASSIFICATION_TYPE":"U","NORAD_CAT_ID":68127,"ELEMENT_SET_NO":999,"REV_AT_EPOCH":29,"BSTAR":0.0010434,"MEAN_MOTION_DOT":0.00482503,"MEAN_MOTION_DDOT":9.2133e-5}]
